{
"type": "FeatureCollection",
"name": "conflict_bus",
"crs": { "type": "name", "properties": { "name": "urn:ogc:def:crs:OGC:1.3:CRS84" } },
"features": [
{ "type": "Feature", "properties": { "status": "BADLY PLACED", "type": "Bus Station", "reason": "Bus station within 500m of school or hospital — heavy traffic and noise pollution", "solution": "Relocate bus terminal to city outskirts near highway interchange", "name": "Ishaq transport" }, "geometry": { "type": "Point", "coordinates": [ 73.4588328, 30.8101915 ] } }
]
}
