{
"type": "FeatureCollection",
"name": "conflict_markets",
"crs": { "type": "name", "properties": { "name": "urn:ogc:def:crs:OGC:1.3:CRS84" } },
"features": [
{ "type": "Feature", "properties": { "status": "BADLY PLACED", "type": "Marketplace", "reason": "Marketplace within 500m of school or hospital — traffic congestion and noise", "solution": "Relocate market to designated commercial zone near main highway", "name": "Sabzi Mandi (Farmer's Market)" }, "geometry": { "type": "Point", "coordinates": [ 73.4389793, 30.8099227 ] } }
]
}
