{
"type": "FeatureCollection",
"name": "green_corridors",
"crs": { "type": "name", "properties": { "name": "urn:ogc:def:crs:OGC:1.3:CRS84" } },
"features": [
{ "type": "Feature", "properties": { "facility": "Green Corridor", "rank": 1, "suitability_score": 100.0, "reason": "High suitability: peripheral location suitable for green belt development" }, "geometry": { "type": "Point", "coordinates": [ 73.878800916259507, 30.319504597521586 ] } },
{ "type": "Feature", "properties": { "facility": "Green Corridor", "rank": 2, "suitability_score": 99.8, "reason": "High suitability: peripheral location suitable for green belt development" }, "geometry": { "type": "Point", "coordinates": [ 73.73767081069353, 30.278801227051673 ] } },
{ "type": "Feature", "properties": { "facility": "Green Corridor", "rank": 3, "suitability_score": 99.6, "reason": "High suitability: peripheral location suitable for green belt development" }, "geometry": { "type": "Point", "coordinates": [ 73.741650102187748, 30.280069366056772 ] } },
{ "type": "Feature", "properties": { "facility": "Green Corridor", "rank": 4, "suitability_score": 99.6, "reason": "High suitability: peripheral location suitable for green belt development" }, "geometry": { "type": "Point", "coordinates": [ 73.741650102187748, 30.280069366056772 ] } },
{ "type": "Feature", "properties": { "facility": "Green Corridor", "rank": 5, "suitability_score": 97.8, "reason": "High suitability: peripheral location suitable for green belt development" }, "geometry": { "type": "Point", "coordinates": [ 73.87016336268141, 30.32671306439768 ] } }
]
}
