{
"type": "FeatureCollection",
"name": "safe_zones",
"crs": { "type": "name", "properties": { "name": "urn:ogc:def:crs:OGC:1.3:CRS84" } },
"features": [
{ "type": "Feature", "properties": { "status": "SAFE ZONE", "type": "Relocation Zone", "reason": "More than 500m from any school or hospital", "name": null }, "geometry": { "type": "Point", "coordinates": [ 74.031334957375506, 30.653591648883829 ] } },
{ "type": "Feature", "properties": { "status": "SAFE ZONE", "type": "Relocation Zone", "reason": "More than 500m from any school or hospital", "name": null }, "geometry": { "type": "Point", "coordinates": [ 73.651876289117965, 30.670854340732131 ] } },
{ "type": "Feature", "properties": { "status": "SAFE ZONE", "type": "Relocation Zone", "reason": "More than 500m from any school or hospital", "name": "Karampur" }, "geometry": { "type": "Point", "coordinates": [ 73.681846130341853, 30.287936665438085 ] } },
{ "type": "Feature", "properties": { "status": "SAFE ZONE", "type": "Relocation Zone", "reason": "More than 500m from any school or hospital", "name": "Chak 2/1-L" }, "geometry": { "type": "Point", "coordinates": [ 73.638853332666372, 30.84764947847647 ] } },
{ "type": "Feature", "properties": { "status": "SAFE ZONE", "type": "Relocation Zone", "reason": "More than 500m from any school or hospital", "name": null }, "geometry": { "type": "Point", "coordinates": [ 73.850419703704048, 30.390804393068077 ] } },
{ "type": "Feature", "properties": { "status": "SAFE ZONE", "type": "Relocation Zone", "reason": "More than 500m from any school or hospital", "name": null }, "geometry": { "type": "Point", "coordinates": [ 73.844594590427747, 30.318438716589483 ] } },
{ "type": "Feature", "properties": { "status": "SAFE ZONE", "type": "Relocation Zone", "reason": "More than 500m from any school or hospital", "name": null }, "geometry": { "type": "Point", "coordinates": [ 73.872009017642469, 30.341591221591568 ] } },
{ "type": "Feature", "properties": { "status": "SAFE ZONE", "type": "Relocation Zone", "reason": "More than 500m from any school or hospital", "name": null }, "geometry": { "type": "Point", "coordinates": [ 73.707921767280524, 30.366749289903229 ] } },
{ "type": "Feature", "properties": { "status": "SAFE ZONE", "type": "Relocation Zone", "reason": "More than 500m from any school or hospital", "name": null }, "geometry": { "type": "Point", "coordinates": [ 73.78752094925288, 30.366941114690842 ] } },
{ "type": "Feature", "properties": { "status": "SAFE ZONE", "type": "Relocation Zone", "reason": "More than 500m from any school or hospital", "name": null }, "geometry": { "type": "Point", "coordinates": [ 73.73767081069353, 30.278801227051673 ] } },
{ "type": "Feature", "properties": { "status": "SAFE ZONE", "type": "Relocation Zone", "reason": "More than 500m from any school or hospital", "name": null }, "geometry": { "type": "Point", "coordinates": [ 73.741650102187748, 30.280069366056772 ] } },
{ "type": "Feature", "properties": { "status": "SAFE ZONE", "type": "Relocation Zone", "reason": "More than 500m from any school or hospital", "name": null }, "geometry": { "type": "Point", "coordinates": [ 73.741650102187748, 30.280069366056772 ] } },
{ "type": "Feature", "properties": { "status": "SAFE ZONE", "type": "Relocation Zone", "reason": "More than 500m from any school or hospital", "name": null }, "geometry": { "type": "Point", "coordinates": [ 73.750614296414497, 30.303624493949997 ] } },
{ "type": "Feature", "properties": { "status": "SAFE ZONE", "type": "Relocation Zone", "reason": "More than 500m from any school or hospital", "name": null }, "geometry": { "type": "Point", "coordinates": [ 73.975884874111841, 30.628425257511406 ] } },
{ "type": "Feature", "properties": { "status": "SAFE ZONE", "type": "Relocation Zone", "reason": "More than 500m from any school or hospital", "name": null }, "geometry": { "type": "Point", "coordinates": [ 73.734701225588651, 30.945246568823187 ] } },
{ "type": "Feature", "properties": { "status": "SAFE ZONE", "type": "Relocation Zone", "reason": "More than 500m from any school or hospital", "name": null }, "geometry": { "type": "Point", "coordinates": [ 73.739830664259557, 30.954164226997669 ] } },
{ "type": "Feature", "properties": { "status": "SAFE ZONE", "type": "Relocation Zone", "reason": "More than 500m from any school or hospital", "name": null }, "geometry": { "type": "Point", "coordinates": [ 73.747916330355494, 30.954966411110846 ] } },
{ "type": "Feature", "properties": { "status": "SAFE ZONE", "type": "Relocation Zone", "reason": "More than 500m from any school or hospital", "name": null }, "geometry": { "type": "Point", "coordinates": [ 73.752272594946376, 30.953049673463877 ] } },
{ "type": "Feature", "properties": { "status": "SAFE ZONE", "type": "Relocation Zone", "reason": "More than 500m from any school or hospital", "name": null }, "geometry": { "type": "Point", "coordinates": [ 73.743344311494226, 30.94936622107469 ] } },
{ "type": "Feature", "properties": { "status": "SAFE ZONE", "type": "Relocation Zone", "reason": "More than 500m from any school or hospital", "name": null }, "geometry": { "type": "Point", "coordinates": [ 74.065622308197263, 30.60282529163743 ] } },
{ "type": "Feature", "properties": { "status": "SAFE ZONE", "type": "Relocation Zone", "reason": "More than 500m from any school or hospital", "name": null }, "geometry": { "type": "Point", "coordinates": [ 73.448382486115989, 31.072337575451716 ] } },
{ "type": "Feature", "properties": { "status": "SAFE ZONE", "type": "Relocation Zone", "reason": "More than 500m from any school or hospital", "name": null }, "geometry": { "type": "Point", "coordinates": [ 73.811709614510988, 30.326685713461504 ] } },
{ "type": "Feature", "properties": { "status": "SAFE ZONE", "type": "Relocation Zone", "reason": "More than 500m from any school or hospital", "name": null }, "geometry": { "type": "Point", "coordinates": [ 73.857661654865197, 30.323744601345602 ] } },
{ "type": "Feature", "properties": { "status": "SAFE ZONE", "type": "Relocation Zone", "reason": "More than 500m from any school or hospital", "name": null }, "geometry": { "type": "Point", "coordinates": [ 73.87016336268141, 30.32671306439768 ] } },
{ "type": "Feature", "properties": { "status": "SAFE ZONE", "type": "Relocation Zone", "reason": "More than 500m from any school or hospital", "name": null }, "geometry": { "type": "Point", "coordinates": [ 73.825208800123406, 30.326720017412477 ] } },
{ "type": "Feature", "properties": { "status": "SAFE ZONE", "type": "Relocation Zone", "reason": "More than 500m from any school or hospital", "name": null }, "geometry": { "type": "Point", "coordinates": [ 73.780881764131664, 30.314109856186565 ] } },
{ "type": "Feature", "properties": { "status": "SAFE ZONE", "type": "Relocation Zone", "reason": "More than 500m from any school or hospital", "name": null }, "geometry": { "type": "Point", "coordinates": [ 73.657202967656971, 31.082266580740608 ] } },
{ "type": "Feature", "properties": { "status": "SAFE ZONE", "type": "Relocation Zone", "reason": "More than 500m from any school or hospital", "name": null }, "geometry": { "type": "Point", "coordinates": [ 73.661224226115095, 31.060973099560243 ] } },
{ "type": "Feature", "properties": { "status": "SAFE ZONE", "type": "Relocation Zone", "reason": "More than 500m from any school or hospital", "name": null }, "geometry": { "type": "Point", "coordinates": [ 73.656083230237314, 31.0532081689142 ] } },
{ "type": "Feature", "properties": { "status": "SAFE ZONE", "type": "Relocation Zone", "reason": "More than 500m from any school or hospital", "name": null }, "geometry": { "type": "Point", "coordinates": [ 73.663731918845372, 31.044920148747497 ] } },
{ "type": "Feature", "properties": { "status": "SAFE ZONE", "type": "Relocation Zone", "reason": "More than 500m from any school or hospital", "name": null }, "geometry": { "type": "Point", "coordinates": [ 73.710894288096526, 31.029734966235822 ] } },
{ "type": "Feature", "properties": { "status": "SAFE ZONE", "type": "Relocation Zone", "reason": "More than 500m from any school or hospital", "name": null }, "geometry": { "type": "Point", "coordinates": [ 73.695386194682271, 31.0206003846986 ] } },
{ "type": "Feature", "properties": { "status": "SAFE ZONE", "type": "Relocation Zone", "reason": "More than 500m from any school or hospital", "name": "Gulshan Fareed Town" }, "geometry": { "type": "Point", "coordinates": [ 73.634417870309491, 30.656607897999876 ] } },
{ "type": "Feature", "properties": { "status": "SAFE ZONE", "type": "Relocation Zone", "reason": "More than 500m from any school or hospital", "name": "Jhugian Rahmoon" }, "geometry": { "type": "Point", "coordinates": [ 73.886917898840338, 30.841887538587677 ] } },
{ "type": "Feature", "properties": { "status": "SAFE ZONE", "type": "Relocation Zone", "reason": "More than 500m from any school or hospital", "name": "Kot Haji Ismail" }, "geometry": { "type": "Point", "coordinates": [ 73.882299849661365, 30.838793447957173 ] } },
{ "type": "Feature", "properties": { "status": "SAFE ZONE", "type": "Relocation Zone", "reason": "More than 500m from any school or hospital", "name": null }, "geometry": { "type": "Point", "coordinates": [ 73.615091718709863, 30.843570475990767 ] } },
{ "type": "Feature", "properties": { "status": "SAFE ZONE", "type": "Relocation Zone", "reason": "More than 500m from any school or hospital", "name": null }, "geometry": { "type": "Point", "coordinates": [ 73.404344518392506, 30.865510150468939 ] } },
{ "type": "Feature", "properties": { "status": "SAFE ZONE", "type": "Relocation Zone", "reason": "More than 500m from any school or hospital", "name": null }, "geometry": { "type": "Point", "coordinates": [ 73.421694589967132, 30.781323157274851 ] } },
{ "type": "Feature", "properties": { "status": "SAFE ZONE", "type": "Relocation Zone", "reason": "More than 500m from any school or hospital", "name": null }, "geometry": { "type": "Point", "coordinates": [ 73.792209121629782, 30.922512750082731 ] } },
{ "type": "Feature", "properties": { "status": "SAFE ZONE", "type": "Relocation Zone", "reason": "More than 500m from any school or hospital", "name": null }, "geometry": { "type": "Point", "coordinates": [ 73.748332870468175, 30.900580357490266 ] } },
{ "type": "Feature", "properties": { "status": "SAFE ZONE", "type": "Relocation Zone", "reason": "More than 500m from any school or hospital", "name": null }, "geometry": { "type": "Point", "coordinates": [ 73.737909623352181, 30.827392552639107 ] } },
{ "type": "Feature", "properties": { "status": "SAFE ZONE", "type": "Relocation Zone", "reason": "More than 500m from any school or hospital", "name": null }, "geometry": { "type": "Point", "coordinates": [ 73.804379733290986, 30.760063440781167 ] } },
{ "type": "Feature", "properties": { "status": "SAFE ZONE", "type": "Relocation Zone", "reason": "More than 500m from any school or hospital", "name": null }, "geometry": { "type": "Point", "coordinates": [ 73.641769568293554, 30.802514633923018 ] } },
{ "type": "Feature", "properties": { "status": "SAFE ZONE", "type": "Relocation Zone", "reason": "More than 500m from any school or hospital", "name": null }, "geometry": { "type": "Point", "coordinates": [ 73.878800916259507, 30.319504597521586 ] } },
{ "type": "Feature", "properties": { "status": "SAFE ZONE", "type": "Relocation Zone", "reason": "More than 500m from any school or hospital", "name": null }, "geometry": { "type": "Point", "coordinates": [ 73.953790215634825, 30.525571930366407 ] } },
{ "type": "Feature", "properties": { "status": "SAFE ZONE", "type": "Relocation Zone", "reason": "More than 500m from any school or hospital", "name": null }, "geometry": { "type": "Point", "coordinates": [ 73.969663116978424, 30.534630920209253 ] } },
{ "type": "Feature", "properties": { "status": "SAFE ZONE", "type": "Relocation Zone", "reason": "More than 500m from any school or hospital", "name": null }, "geometry": { "type": "Point", "coordinates": [ 74.003957918811722, 30.551518381436214 ] } },
{ "type": "Feature", "properties": { "status": "SAFE ZONE", "type": "Relocation Zone", "reason": "More than 500m from any school or hospital", "name": null }, "geometry": { "type": "Point", "coordinates": [ 74.001464550176308, 30.601020899919053 ] } },
{ "type": "Feature", "properties": { "status": "SAFE ZONE", "type": "Relocation Zone", "reason": "More than 500m from any school or hospital", "name": null }, "geometry": { "type": "Point", "coordinates": [ 73.963411104398546, 30.598393941727828 ] } },
{ "type": "Feature", "properties": { "status": "SAFE ZONE", "type": "Relocation Zone", "reason": "More than 500m from any school or hospital", "name": null }, "geometry": { "type": "Point", "coordinates": [ 74.043181349400612, 30.607031693225107 ] } },
{ "type": "Feature", "properties": { "status": "SAFE ZONE", "type": "Relocation Zone", "reason": "More than 500m from any school or hospital", "name": null }, "geometry": { "type": "Point", "coordinates": [ 73.972719359571158, 30.654905714560986 ] } },
{ "type": "Feature", "properties": { "status": "SAFE ZONE", "type": "Relocation Zone", "reason": "More than 500m from any school or hospital", "name": null }, "geometry": { "type": "Point", "coordinates": [ 74.078217481414342, 30.683074844325031 ] } },
{ "type": "Feature", "properties": { "status": "SAFE ZONE", "type": "Relocation Zone", "reason": "More than 500m from any school or hospital", "name": null }, "geometry": { "type": "Point", "coordinates": [ 74.077480878511807, 30.68451895684343 ] } },
{ "type": "Feature", "properties": { "status": "SAFE ZONE", "type": "Relocation Zone", "reason": "More than 500m from any school or hospital", "name": null }, "geometry": { "type": "Point", "coordinates": [ 73.837073044102183, 30.578733619172436 ] } },
{ "type": "Feature", "properties": { "status": "SAFE ZONE", "type": "Relocation Zone", "reason": "More than 500m from any school or hospital", "name": null }, "geometry": { "type": "Point", "coordinates": [ 73.975049760533778, 30.624572066969037 ] } },
{ "type": "Feature", "properties": { "status": "SAFE ZONE", "type": "Relocation Zone", "reason": "More than 500m from any school or hospital", "name": null }, "geometry": { "type": "Point", "coordinates": [ 73.763835655487156, 30.610403521555028 ] } },
{ "type": "Feature", "properties": { "status": "SAFE ZONE", "type": "Relocation Zone", "reason": "More than 500m from any school or hospital", "name": null }, "geometry": { "type": "Point", "coordinates": [ 73.691721693949646, 30.619230113207049 ] } },
{ "type": "Feature", "properties": { "status": "SAFE ZONE", "type": "Relocation Zone", "reason": "More than 500m from any school or hospital", "name": null }, "geometry": { "type": "Point", "coordinates": [ 73.688240658946256, 30.621022384997122 ] } },
{ "type": "Feature", "properties": { "status": "SAFE ZONE", "type": "Relocation Zone", "reason": "More than 500m from any school or hospital", "name": null }, "geometry": { "type": "Point", "coordinates": [ 73.773043576731041, 30.507268460996144 ] } },
{ "type": "Feature", "properties": { "status": "SAFE ZONE", "type": "Relocation Zone", "reason": "More than 500m from any school or hospital", "name": null }, "geometry": { "type": "Point", "coordinates": [ 73.718480948739156, 31.002857494605475 ] } },
{ "type": "Feature", "properties": { "status": "SAFE ZONE", "type": "Relocation Zone", "reason": "More than 500m from any school or hospital", "name": null }, "geometry": { "type": "Point", "coordinates": [ 73.453271876526543, 30.808368388897744 ] } },
{ "type": "Feature", "properties": { "status": "SAFE ZONE", "type": "Relocation Zone", "reason": "More than 500m from any school or hospital", "name": null }, "geometry": { "type": "Point", "coordinates": [ 73.476403698493968, 30.808122745387266 ] } },
{ "type": "Feature", "properties": { "status": "SAFE ZONE", "type": "Relocation Zone", "reason": "More than 500m from any school or hospital", "name": null }, "geometry": { "type": "Point", "coordinates": [ 73.476833118323299, 30.810477959454257 ] } },
{ "type": "Feature", "properties": { "status": "SAFE ZONE", "type": "Relocation Zone", "reason": "More than 500m from any school or hospital", "name": null }, "geometry": { "type": "Point", "coordinates": [ 73.576184052886873, 30.868369658249762 ] } },
{ "type": "Feature", "properties": { "status": "SAFE ZONE", "type": "Relocation Zone", "reason": "More than 500m from any school or hospital", "name": null }, "geometry": { "type": "Point", "coordinates": [ 73.501209388396077, 30.891015787605273 ] } },
{ "type": "Feature", "properties": { "status": "SAFE ZONE", "type": "Relocation Zone", "reason": "More than 500m from any school or hospital", "name": null }, "geometry": { "type": "Point", "coordinates": [ 73.571779171428531, 30.93315725543146 ] } },
{ "type": "Feature", "properties": { "status": "SAFE ZONE", "type": "Relocation Zone", "reason": "More than 500m from any school or hospital", "name": null }, "geometry": { "type": "Point", "coordinates": [ 73.558822250808007, 30.92151470082521 ] } },
{ "type": "Feature", "properties": { "status": "SAFE ZONE", "type": "Relocation Zone", "reason": "More than 500m from any school or hospital", "name": null }, "geometry": { "type": "Point", "coordinates": [ 73.759381130050542, 30.973497576317779 ] } },
{ "type": "Feature", "properties": { "status": "SAFE ZONE", "type": "Relocation Zone", "reason": "More than 500m from any school or hospital", "name": null }, "geometry": { "type": "Point", "coordinates": [ 73.766345992220323, 30.980196832671563 ] } },
{ "type": "Feature", "properties": { "status": "SAFE ZONE", "type": "Relocation Zone", "reason": "More than 500m from any school or hospital", "name": null }, "geometry": { "type": "Point", "coordinates": [ 73.747787077621922, 30.96501977206136 ] } },
{ "type": "Feature", "properties": { "status": "SAFE ZONE", "type": "Relocation Zone", "reason": "More than 500m from any school or hospital", "name": null }, "geometry": { "type": "Point", "coordinates": [ 73.71885410546804, 30.940489208199672 ] } },
{ "type": "Feature", "properties": { "status": "SAFE ZONE", "type": "Relocation Zone", "reason": "More than 500m from any school or hospital", "name": null }, "geometry": { "type": "Point", "coordinates": [ 73.712996215304727, 30.944255520823859 ] } },
{ "type": "Feature", "properties": { "status": "SAFE ZONE", "type": "Relocation Zone", "reason": "More than 500m from any school or hospital", "name": null }, "geometry": { "type": "Point", "coordinates": [ 73.712996215304727, 30.944255520823859 ] } },
{ "type": "Feature", "properties": { "status": "SAFE ZONE", "type": "Relocation Zone", "reason": "More than 500m from any school or hospital", "name": null }, "geometry": { "type": "Point", "coordinates": [ 73.728820711489433, 30.925581148518539 ] } },
{ "type": "Feature", "properties": { "status": "SAFE ZONE", "type": "Relocation Zone", "reason": "More than 500m from any school or hospital", "name": null }, "geometry": { "type": "Point", "coordinates": [ 73.716344847783873, 30.922416259073536 ] } },
{ "type": "Feature", "properties": { "status": "SAFE ZONE", "type": "Relocation Zone", "reason": "More than 500m from any school or hospital", "name": null }, "geometry": { "type": "Point", "coordinates": [ 73.716344847783873, 30.922416259073536 ] } },
{ "type": "Feature", "properties": { "status": "SAFE ZONE", "type": "Relocation Zone", "reason": "More than 500m from any school or hospital", "name": null }, "geometry": { "type": "Point", "coordinates": [ 73.673542929612069, 30.851741351689551 ] } },
{ "type": "Feature", "properties": { "status": "SAFE ZONE", "type": "Relocation Zone", "reason": "More than 500m from any school or hospital", "name": null }, "geometry": { "type": "Point", "coordinates": [ 73.711580233486728, 30.858681875165583 ] } },
{ "type": "Feature", "properties": { "status": "SAFE ZONE", "type": "Relocation Zone", "reason": "More than 500m from any school or hospital", "name": null }, "geometry": { "type": "Point", "coordinates": [ 73.710933452101585, 30.877406015313262 ] } },
{ "type": "Feature", "properties": { "status": "SAFE ZONE", "type": "Relocation Zone", "reason": "More than 500m from any school or hospital", "name": null }, "geometry": { "type": "Point", "coordinates": [ 73.731506530806627, 30.878364738345734 ] } },
{ "type": "Feature", "properties": { "status": "SAFE ZONE", "type": "Relocation Zone", "reason": "More than 500m from any school or hospital", "name": null }, "geometry": { "type": "Point", "coordinates": [ 73.719780069209662, 30.851620860600072 ] } },
{ "type": "Feature", "properties": { "status": "SAFE ZONE", "type": "Relocation Zone", "reason": "More than 500m from any school or hospital", "name": null }, "geometry": { "type": "Point", "coordinates": [ 73.719780069209662, 30.851620860600072 ] } },
{ "type": "Feature", "properties": { "status": "SAFE ZONE", "type": "Relocation Zone", "reason": "More than 500m from any school or hospital", "name": null }, "geometry": { "type": "Point", "coordinates": [ 73.761856558005377, 30.886535656965535 ] } },
{ "type": "Feature", "properties": { "status": "SAFE ZONE", "type": "Relocation Zone", "reason": "More than 500m from any school or hospital", "name": null }, "geometry": { "type": "Point", "coordinates": [ 73.758853328364111, 30.914410824763387 ] } },
{ "type": "Feature", "properties": { "status": "SAFE ZONE", "type": "Relocation Zone", "reason": "More than 500m from any school or hospital", "name": null }, "geometry": { "type": "Point", "coordinates": [ 73.771172118416033, 30.917228739631604 ] } },
{ "type": "Feature", "properties": { "status": "SAFE ZONE", "type": "Relocation Zone", "reason": "More than 500m from any school or hospital", "name": null }, "geometry": { "type": "Point", "coordinates": [ 73.779786009417307, 30.892333509630106 ] } },
{ "type": "Feature", "properties": { "status": "SAFE ZONE", "type": "Relocation Zone", "reason": "More than 500m from any school or hospital", "name": null }, "geometry": { "type": "Point", "coordinates": [ 73.772797649210304, 30.870141255322487 ] } },
{ "type": "Feature", "properties": { "status": "SAFE ZONE", "type": "Relocation Zone", "reason": "More than 500m from any school or hospital", "name": null }, "geometry": { "type": "Point", "coordinates": [ 73.804082601965192, 30.865916359124995 ] } },
{ "type": "Feature", "properties": { "status": "SAFE ZONE", "type": "Relocation Zone", "reason": "More than 500m from any school or hospital", "name": null }, "geometry": { "type": "Point", "coordinates": [ 73.744345389051077, 30.865254438375057 ] } },
{ "type": "Feature", "properties": { "status": "SAFE ZONE", "type": "Relocation Zone", "reason": "More than 500m from any school or hospital", "name": null }, "geometry": { "type": "Point", "coordinates": [ 73.702041189983944, 30.840843168490295 ] } },
{ "type": "Feature", "properties": { "status": "SAFE ZONE", "type": "Relocation Zone", "reason": "More than 500m from any school or hospital", "name": null }, "geometry": { "type": "Point", "coordinates": [ 73.669155157706967, 30.840195767416144 ] } },
{ "type": "Feature", "properties": { "status": "SAFE ZONE", "type": "Relocation Zone", "reason": "More than 500m from any school or hospital", "name": null }, "geometry": { "type": "Point", "coordinates": [ 73.666713254563362, 30.838022091220694 ] } },
{ "type": "Feature", "properties": { "status": "SAFE ZONE", "type": "Relocation Zone", "reason": "More than 500m from any school or hospital", "name": null }, "geometry": { "type": "Point", "coordinates": [ 73.63780090045131, 30.844478743861316 ] } },
{ "type": "Feature", "properties": { "status": "SAFE ZONE", "type": "Relocation Zone", "reason": "More than 500m from any school or hospital", "name": null }, "geometry": { "type": "Point", "coordinates": [ 73.646261343054675, 30.827033403334717 ] } },
{ "type": "Feature", "properties": { "status": "SAFE ZONE", "type": "Relocation Zone", "reason": "More than 500m from any school or hospital", "name": null }, "geometry": { "type": "Point", "coordinates": [ 73.61734568382245, 30.825147052613747 ] } },
{ "type": "Feature", "properties": { "status": "SAFE ZONE", "type": "Relocation Zone", "reason": "More than 500m from any school or hospital", "name": null }, "geometry": { "type": "Point", "coordinates": [ 73.411450117792825, 30.802885780926001 ] } },
{ "type": "Feature", "properties": { "status": "SAFE ZONE", "type": "Relocation Zone", "reason": "More than 500m from any school or hospital", "name": null }, "geometry": { "type": "Point", "coordinates": [ 73.42167907643389, 30.781219630378622 ] } },
{ "type": "Feature", "properties": { "status": "SAFE ZONE", "type": "Relocation Zone", "reason": "More than 500m from any school or hospital", "name": null }, "geometry": { "type": "Point", "coordinates": [ 73.826488307430679, 30.931064157350157 ] } },
{ "type": "Feature", "properties": { "status": "SAFE ZONE", "type": "Relocation Zone", "reason": "More than 500m from any school or hospital", "name": null }, "geometry": { "type": "Point", "coordinates": [ 73.831398855144272, 30.913925346021848 ] } },
{ "type": "Feature", "properties": { "status": "SAFE ZONE", "type": "Relocation Zone", "reason": "More than 500m from any school or hospital", "name": null }, "geometry": { "type": "Point", "coordinates": [ 73.759874903692321, 30.942306777291279 ] } },
{ "type": "Feature", "properties": { "status": "SAFE ZONE", "type": "Relocation Zone", "reason": "More than 500m from any school or hospital", "name": null }, "geometry": { "type": "Point", "coordinates": [ 73.723302854015003, 30.963135071099849 ] } },
{ "type": "Feature", "properties": { "status": "SAFE ZONE", "type": "Relocation Zone", "reason": "More than 500m from any school or hospital", "name": null }, "geometry": { "type": "Point", "coordinates": [ 73.796955674852214, 30.897568753699726 ] } },
{ "type": "Feature", "properties": { "status": "SAFE ZONE", "type": "Relocation Zone", "reason": "More than 500m from any school or hospital", "name": null }, "geometry": { "type": "Point", "coordinates": [ 73.849405755781476, 30.877962626824228 ] } },
{ "type": "Feature", "properties": { "status": "SAFE ZONE", "type": "Relocation Zone", "reason": "More than 500m from any school or hospital", "name": null }, "geometry": { "type": "Point", "coordinates": [ 73.841300117052398, 30.891689872749488 ] } },
{ "type": "Feature", "properties": { "status": "SAFE ZONE", "type": "Relocation Zone", "reason": "More than 500m from any school or hospital", "name": null }, "geometry": { "type": "Point", "coordinates": [ 73.874086671207422, 30.854131198546686 ] } },
{ "type": "Feature", "properties": { "status": "SAFE ZONE", "type": "Relocation Zone", "reason": "More than 500m from any school or hospital", "name": null }, "geometry": { "type": "Point", "coordinates": [ 73.876325416582389, 30.858065932947554 ] } },
{ "type": "Feature", "properties": { "status": "SAFE ZONE", "type": "Relocation Zone", "reason": "More than 500m from any school or hospital", "name": null }, "geometry": { "type": "Point", "coordinates": [ 73.730360359592225, 31.013926457504763 ] } },
{ "type": "Feature", "properties": { "status": "SAFE ZONE", "type": "Relocation Zone", "reason": "More than 500m from any school or hospital", "name": null }, "geometry": { "type": "Point", "coordinates": [ 73.736168913641762, 31.002336999215881 ] } },
{ "type": "Feature", "properties": { "status": "SAFE ZONE", "type": "Relocation Zone", "reason": "More than 500m from any school or hospital", "name": null }, "geometry": { "type": "Point", "coordinates": [ 73.723789228267435, 30.989077761177956 ] } },
{ "type": "Feature", "properties": { "status": "SAFE ZONE", "type": "Relocation Zone", "reason": "More than 500m from any school or hospital", "name": null }, "geometry": { "type": "Point", "coordinates": [ 73.899088325796939, 30.833290620496737 ] } },
{ "type": "Feature", "properties": { "status": "SAFE ZONE", "type": "Relocation Zone", "reason": "More than 500m from any school or hospital", "name": null }, "geometry": { "type": "Point", "coordinates": [ 73.913778746548601, 30.816197587907887 ] } },
{ "type": "Feature", "properties": { "status": "SAFE ZONE", "type": "Relocation Zone", "reason": "More than 500m from any school or hospital", "name": null }, "geometry": { "type": "Point", "coordinates": [ 73.919362481622002, 30.808500971862873 ] } },
{ "type": "Feature", "properties": { "status": "SAFE ZONE", "type": "Relocation Zone", "reason": "More than 500m from any school or hospital", "name": null }, "geometry": { "type": "Point", "coordinates": [ 73.903369464661466, 30.815850479418721 ] } },
{ "type": "Feature", "properties": { "status": "SAFE ZONE", "type": "Relocation Zone", "reason": "More than 500m from any school or hospital", "name": null }, "geometry": { "type": "Point", "coordinates": [ 73.90250119113476, 30.811042454210938 ] } },
{ "type": "Feature", "properties": { "status": "SAFE ZONE", "type": "Relocation Zone", "reason": "More than 500m from any school or hospital", "name": null }, "geometry": { "type": "Point", "coordinates": [ 73.883933683350804, 30.805678966413399 ] } },
{ "type": "Feature", "properties": { "status": "SAFE ZONE", "type": "Relocation Zone", "reason": "More than 500m from any school or hospital", "name": null }, "geometry": { "type": "Point", "coordinates": [ 73.844975900050017, 30.787890645159813 ] } },
{ "type": "Feature", "properties": { "status": "SAFE ZONE", "type": "Relocation Zone", "reason": "More than 500m from any school or hospital", "name": null }, "geometry": { "type": "Point", "coordinates": [ 74.076636916348221, 30.753553463376345 ] } },
{ "type": "Feature", "properties": { "status": "SAFE ZONE", "type": "Relocation Zone", "reason": "More than 500m from any school or hospital", "name": null }, "geometry": { "type": "Point", "coordinates": [ 74.076752463714882, 30.758166699021189 ] } },
{ "type": "Feature", "properties": { "status": "SAFE ZONE", "type": "Relocation Zone", "reason": "More than 500m from any school or hospital", "name": null }, "geometry": { "type": "Point", "coordinates": [ 73.666843437239379, 30.466017871192381 ] } },
{ "type": "Feature", "properties": { "status": "SAFE ZONE", "type": "Relocation Zone", "reason": "More than 500m from any school or hospital", "name": null }, "geometry": { "type": "Point", "coordinates": [ 73.697040468270401, 30.447806401221303 ] } },
{ "type": "Feature", "properties": { "status": "SAFE ZONE", "type": "Relocation Zone", "reason": "More than 500m from any school or hospital", "name": null }, "geometry": { "type": "Point", "coordinates": [ 73.697040468270401, 30.447806401221303 ] } },
{ "type": "Feature", "properties": { "status": "SAFE ZONE", "type": "Relocation Zone", "reason": "More than 500m from any school or hospital", "name": null }, "geometry": { "type": "Point", "coordinates": [ 73.701269386663071, 30.468957925817399 ] } },
{ "type": "Feature", "properties": { "status": "SAFE ZONE", "type": "Relocation Zone", "reason": "More than 500m from any school or hospital", "name": null }, "geometry": { "type": "Point", "coordinates": [ 73.835786909487396, 30.407638963890697 ] } },
{ "type": "Feature", "properties": { "status": "SAFE ZONE", "type": "Relocation Zone", "reason": "More than 500m from any school or hospital", "name": "آرائیاں والی بھینی" }, "geometry": { "type": "Point", "coordinates": [ 73.836936463514647, 30.403369885045521 ] } },
{ "type": "Feature", "properties": { "status": "SAFE ZONE", "type": "Relocation Zone", "reason": "More than 500m from any school or hospital", "name": "چاہ بودل والا" }, "geometry": { "type": "Point", "coordinates": [ 73.82197102492556, 30.449623095736921 ] } },
{ "type": "Feature", "properties": { "status": "SAFE ZONE", "type": "Relocation Zone", "reason": "More than 500m from any school or hospital", "name": "خورشید نگر" }, "geometry": { "type": "Point", "coordinates": [ 73.815503017026387, 30.448668473578817 ] } },
{ "type": "Feature", "properties": { "status": "SAFE ZONE", "type": "Relocation Zone", "reason": "More than 500m from any school or hospital", "name": "واں ہاشم والی" }, "geometry": { "type": "Point", "coordinates": [ 73.815064938801541, 30.451603827001314 ] } },
{ "type": "Feature", "properties": { "status": "SAFE ZONE", "type": "Relocation Zone", "reason": "More than 500m from any school or hospital", "name": "شیر کوٹ" }, "geometry": { "type": "Point", "coordinates": [ 73.812822675545689, 30.448872372402008 ] } },
{ "type": "Feature", "properties": { "status": "SAFE ZONE", "type": "Relocation Zone", "reason": "More than 500m from any school or hospital", "name": "محمود نگر" }, "geometry": { "type": "Point", "coordinates": [ 73.818591479367569, 30.444580362981064 ] } },
{ "type": "Feature", "properties": { "status": "SAFE ZONE", "type": "Relocation Zone", "reason": "More than 500m from any school or hospital", "name": "بستی گوہر خاں والی" }, "geometry": { "type": "Point", "coordinates": [ 73.818878693281434, 30.4297845497079 ] } },
{ "type": "Feature", "properties": { "status": "SAFE ZONE", "type": "Relocation Zone", "reason": "More than 500m from any school or hospital", "name": "Basti Jafar Khan wali" }, "geometry": { "type": "Point", "coordinates": [ 73.820072484137668, 30.428978589050701 ] } },
{ "type": "Feature", "properties": { "status": "SAFE ZONE", "type": "Relocation Zone", "reason": "More than 500m from any school or hospital", "name": "Jhook Sajwar" }, "geometry": { "type": "Point", "coordinates": [ 73.834708116231994, 30.40030315632308 ] } },
{ "type": "Feature", "properties": { "status": "SAFE ZONE", "type": "Relocation Zone", "reason": "More than 500m from any school or hospital", "name": "Koh Zareen" }, "geometry": { "type": "Point", "coordinates": [ 73.837345203098764, 30.401476950395462 ] } },
{ "type": "Feature", "properties": { "status": "SAFE ZONE", "type": "Relocation Zone", "reason": "More than 500m from any school or hospital", "name": "Nooch Manga wala" }, "geometry": { "type": "Point", "coordinates": [ 73.87061330076331, 30.419228313916147 ] } },
{ "type": "Feature", "properties": { "status": "SAFE ZONE", "type": "Relocation Zone", "reason": "More than 500m from any school or hospital", "name": null }, "geometry": { "type": "Point", "coordinates": [ 73.815038043299381, 30.788965135670857 ] } },
{ "type": "Feature", "properties": { "status": "SAFE ZONE", "type": "Relocation Zone", "reason": "More than 500m from any school or hospital", "name": null }, "geometry": { "type": "Point", "coordinates": [ 73.824299798760961, 30.781601352962497 ] } },
{ "type": "Feature", "properties": { "status": "SAFE ZONE", "type": "Relocation Zone", "reason": "More than 500m from any school or hospital", "name": null }, "geometry": { "type": "Point", "coordinates": [ 73.818647886086367, 30.792075371181888 ] } },
{ "type": "Feature", "properties": { "status": "SAFE ZONE", "type": "Relocation Zone", "reason": "More than 500m from any school or hospital", "name": null }, "geometry": { "type": "Point", "coordinates": [ 73.736968797184886, 30.935786041829942 ] } },
{ "type": "Feature", "properties": { "status": "SAFE ZONE", "type": "Relocation Zone", "reason": "More than 500m from any school or hospital", "name": null }, "geometry": { "type": "Point", "coordinates": [ 73.734921578493626, 30.956201639393381 ] } },
{ "type": "Feature", "properties": { "status": "SAFE ZONE", "type": "Relocation Zone", "reason": "More than 500m from any school or hospital", "name": null }, "geometry": { "type": "Point", "coordinates": [ 73.759943519240935, 30.957732157322496 ] } },
{ "type": "Feature", "properties": { "status": "SAFE ZONE", "type": "Relocation Zone", "reason": "More than 500m from any school or hospital", "name": null }, "geometry": { "type": "Point", "coordinates": [ 73.667414049856731, 31.120183494012956 ] } },
{ "type": "Feature", "properties": { "status": "SAFE ZONE", "type": "Relocation Zone", "reason": "More than 500m from any school or hospital", "name": null }, "geometry": { "type": "Point", "coordinates": [ 73.662552027059007, 31.115746266376735 ] } },
{ "type": "Feature", "properties": { "status": "SAFE ZONE", "type": "Relocation Zone", "reason": "More than 500m from any school or hospital", "name": null }, "geometry": { "type": "Point", "coordinates": [ 73.656408980686962, 31.123674627543245 ] } },
{ "type": "Feature", "properties": { "status": "SAFE ZONE", "type": "Relocation Zone", "reason": "More than 500m from any school or hospital", "name": null }, "geometry": { "type": "Point", "coordinates": [ 73.38322234271962, 30.858722603717087 ] } },
{ "type": "Feature", "properties": { "status": "SAFE ZONE", "type": "Relocation Zone", "reason": "More than 500m from any school or hospital", "name": null }, "geometry": { "type": "Point", "coordinates": [ 73.355009903883655, 30.87644683788654 ] } },
{ "type": "Feature", "properties": { "status": "SAFE ZONE", "type": "Relocation Zone", "reason": "More than 500m from any school or hospital", "name": null }, "geometry": { "type": "Point", "coordinates": [ 73.402107899838455, 30.884586035767828 ] } },
{ "type": "Feature", "properties": { "status": "SAFE ZONE", "type": "Relocation Zone", "reason": "More than 500m from any school or hospital", "name": null }, "geometry": { "type": "Point", "coordinates": [ 73.387770323878684, 30.896494121986368 ] } },
{ "type": "Feature", "properties": { "status": "SAFE ZONE", "type": "Relocation Zone", "reason": "More than 500m from any school or hospital", "name": null }, "geometry": { "type": "Point", "coordinates": [ 73.378169072404631, 30.891138058733937 ] } },
{ "type": "Feature", "properties": { "status": "SAFE ZONE", "type": "Relocation Zone", "reason": "More than 500m from any school or hospital", "name": null }, "geometry": { "type": "Point", "coordinates": [ 73.410935132691506, 30.900143047924736 ] } },
{ "type": "Feature", "properties": { "status": "SAFE ZONE", "type": "Relocation Zone", "reason": "More than 500m from any school or hospital", "name": null }, "geometry": { "type": "Point", "coordinates": [ 73.438466208117944, 30.908783047478007 ] } },
{ "type": "Feature", "properties": { "status": "SAFE ZONE", "type": "Relocation Zone", "reason": "More than 500m from any school or hospital", "name": null }, "geometry": { "type": "Point", "coordinates": [ 73.452522343918929, 30.926206760757577 ] } },
{ "type": "Feature", "properties": { "status": "SAFE ZONE", "type": "Relocation Zone", "reason": "More than 500m from any school or hospital", "name": null }, "geometry": { "type": "Point", "coordinates": [ 73.454127937699539, 30.930042765891077 ] } },
{ "type": "Feature", "properties": { "status": "SAFE ZONE", "type": "Relocation Zone", "reason": "More than 500m from any school or hospital", "name": null }, "geometry": { "type": "Point", "coordinates": [ 73.427823047039951, 30.944300144769731 ] } },
{ "type": "Feature", "properties": { "status": "SAFE ZONE", "type": "Relocation Zone", "reason": "More than 500m from any school or hospital", "name": null }, "geometry": { "type": "Point", "coordinates": [ 73.420672830746611, 30.949664185643954 ] } },
{ "type": "Feature", "properties": { "status": "SAFE ZONE", "type": "Relocation Zone", "reason": "More than 500m from any school or hospital", "name": null }, "geometry": { "type": "Point", "coordinates": [ 73.380618704297248, 30.957702835962646 ] } }
]
}
