{
"type": "FeatureCollection",
"name": "sensitive_locations",
"crs": { "type": "name", "properties": { "name": "urn:ogc:def:crs:OGC:1.3:CRS84" } },
"features": [
{ "type": "Feature", "properties": { "amenity": "hospital", "name": "Dr.Tanseeb Hospital" }, "geometry": { "type": "Point", "coordinates": [ 73.5965495, 30.8765665 ] } },
{ "type": "Feature", "properties": { "amenity": "school", "name": "Hazrat karmanwala college n Islamic university" }, "geometry": { "type": "Point", "coordinates": [ 73.4905872, 30.8269671 ] } },
{ "type": "Feature", "properties": { "amenity": "school", "name": "The Knowledge School IMT" }, "geometry": { "type": "Point", "coordinates": [ 73.4539918, 30.8186403 ] } },
{ "type": "Feature", "properties": { "amenity": "school", "name": "The Knowledge School SMT Campus" }, "geometry": { "type": "Point", "coordinates": [ 73.4452524, 30.8109649 ] } },
{ "type": "Feature", "properties": { "amenity": "clinic", "name": "Punjab Clinic" }, "geometry": { "type": "Point", "coordinates": [ 73.4605237, 30.8060366 ] } },
{ "type": "Feature", "properties": { "amenity": "school", "name": "Government High School Sadar Gogera Okara" }, "geometry": { "type": "Point", "coordinates": [ 73.3259116, 30.9615326 ] } },
{ "type": "Feature", "properties": { "amenity": "school", "name": null }, "geometry": { "type": "Point", "coordinates": [ 73.4452824, 30.811558399999985 ] } },
{ "type": "Feature", "properties": { "amenity": "school", "name": null }, "geometry": { "type": "Point", "coordinates": [ 73.4449767, 30.8120007 ] } },
{ "type": "Feature", "properties": { "amenity": "school", "name": null }, "geometry": { "type": "Point", "coordinates": [ 73.4410311, 30.8095266 ] } },
{ "type": "Feature", "properties": { "amenity": "school", "name": null }, "geometry": { "type": "Point", "coordinates": [ 73.442155, 30.8099044 ] } },
{ "type": "Feature", "properties": { "amenity": "school", "name": null }, "geometry": { "type": "Point", "coordinates": [ 73.4412082, 30.8099597 ] } },
{ "type": "Feature", "properties": { "amenity": "hospital", "name": null }, "geometry": { "type": "Point", "coordinates": [ 73.4435041, 30.8113166 ] } },
{ "type": "Feature", "properties": { "amenity": "hospital", "name": "DHQ Hospital Okara" }, "geometry": { "type": "Point", "coordinates": [ 73.443053500000019, 30.8131065 ] } },
{ "type": "Feature", "properties": { "amenity": "hospital", "name": null }, "geometry": { "type": "Point", "coordinates": [ 73.4430589, 30.8111668 ] } },
{ "type": "Feature", "properties": { "amenity": "school", "name": "Government High School for Boys Sadar Gogera Okara" }, "geometry": { "type": "Point", "coordinates": [ 73.32, 30.9595722 ] } },
{ "type": "Feature", "properties": { "amenity": "school", "name": null }, "geometry": { "type": "Point", "coordinates": [ 73.3267536, 30.9601135 ] } },
{ "type": "Feature", "properties": { "amenity": "hospital", "name": "DHQ Hospital Okara" }, "geometry": { "type": "Point", "coordinates": [ 73.4423736, 30.8126702 ] } },
{ "type": "Feature", "properties": { "amenity": "hospital", "name": "DHQ Hospital Okara" }, "geometry": { "type": "Point", "coordinates": [ 73.4427187, 30.8120378 ] } },
{ "type": "Feature", "properties": { "amenity": "school", "name": "Government School" }, "geometry": { "type": "Polygon", "coordinates": [ [ [ 73.2900703, 30.9010503 ], [ 73.289343, 30.9010393 ], [ 73.2894663, 30.8994139 ], [ 73.2900975, 30.899426 ], [ 73.2900703, 30.9010503 ] ] ] } },
{ "type": "Feature", "properties": { "amenity": "school", "name": "Government School" }, "geometry": { "type": "Polygon", "coordinates": [ [ [ 73.3269815, 30.8559479 ], [ 73.3289556, 30.8559111 ], [ 73.3289127, 30.8542901 ], [ 73.32696, 30.8542901 ], [ 73.3269815, 30.8559479 ] ] ] } },
{ "type": "Feature", "properties": { "amenity": "kindergarten", "name": null }, "geometry": { "type": "Polygon", "coordinates": [ [ [ 73.3862036, 30.8897105 ], [ 73.3862251, 30.8886333 ], [ 73.3847795, 30.8886328 ], [ 73.3847936, 30.889678 ], [ 73.3862036, 30.8897105 ] ] ] } },
{ "type": "Feature", "properties": { "amenity": "school", "name": "Govt Boys school 24/2.r" }, "geometry": { "type": "Polygon", "coordinates": [ [ [ 73.5201768, 30.8568174 ], [ 73.5204909, 30.8568132 ], [ 73.5208328, 30.8568086 ], [ 73.5211445, 30.8568081 ], [ 73.5215424, 30.8568075 ], [ 73.5215637, 30.8560652 ], [ 73.5214793, 30.8560008 ], [ 73.5201761, 30.8560014 ], [ 73.5201795, 30.8564163 ], [ 73.5201768, 30.8568174 ] ] ] } },
{ "type": "Feature", "properties": { "amenity": "school", "name": "Govt Girl High School 24/2.r" }, "geometry": { "type": "Polygon", "coordinates": [ [ [ 73.5215424, 30.8568075 ], [ 73.5215441, 30.8576233 ], [ 73.5208346, 30.8576245 ], [ 73.5208328, 30.8568086 ], [ 73.5211445, 30.8568081 ], [ 73.5215424, 30.8568075 ] ] ] } },
{ "type": "Feature", "properties": { "amenity": "school", "name": "Government Girls School" }, "geometry": { "type": "Polygon", "coordinates": [ [ [ 73.8260399, 30.7439186 ], [ 73.826271, 30.7433506 ], [ 73.8270289, 30.7433705 ], [ 73.8272785, 30.7436127 ], [ 73.8276667, 30.7435889 ], [ 73.8276806, 30.7437279 ], [ 73.828212, 30.7439027 ], [ 73.8280179, 30.7450149 ], [ 73.8274818, 30.7451777 ], [ 73.827089, 30.7449871 ], [ 73.826557500000021, 30.744431 ], [ 73.8263357, 30.7443794 ], [ 73.8261231, 30.7442761 ], [ 73.8260815, 30.744156899999986 ], [ 73.8261786, 30.7441053 ], [ 73.8260399, 30.7439186 ] ] ] } },
{ "type": "Feature", "properties": { "amenity": "college", "name": "Girls Degree College" }, "geometry": { "type": "Polygon", "coordinates": [ [ [ 73.8204447, 30.7457343 ], [ 73.8206829, 30.7459136 ], [ 73.8216692, 30.746656 ], [ 73.8226988, 30.7454933 ], [ 73.8227659, 30.74553 ], [ 73.823022, 30.7451474 ], [ 73.8216721, 30.7443793 ], [ 73.8211517, 30.7450176 ], [ 73.8204447, 30.7457343 ] ] ] } },
{ "type": "Feature", "properties": { "amenity": "school", "name": "Govt High School For Boys" }, "geometry": { "type": "Polygon", "coordinates": [ [ [ 73.8183766, 30.7407041 ], [ 73.820129400000013, 30.740629299999984 ], [ 73.8200972, 30.7404633 ], [ 73.820415, 30.7404529 ], [ 73.820411, 30.7402662 ], [ 73.8207127, 30.7402627 ], [ 73.8207127, 30.740103699999988 ], [ 73.8209577, 30.7401035 ], [ 73.8209569, 30.740067100000012 ], [ 73.8209973, 30.7399866 ], [ 73.8210025, 30.739799 ], [ 73.8207127, 30.7398581 ], [ 73.8207208, 30.7397267 ], [ 73.8203587, 30.7397544 ], [ 73.8203587, 30.7396437 ], [ 73.8201736, 30.7396783 ], [ 73.8201454, 30.7395262 ], [ 73.8189827, 30.7398097 ], [ 73.8189465, 30.739585 ], [ 73.8188258, 30.7395696 ], [ 73.8184154, 30.7396042 ], [ 73.8183953, 30.7396341 ], [ 73.8183886, 30.7396733 ], [ 73.8183821, 30.7402313 ], [ 73.8183766, 30.7407041 ] ] ] } },
{ "type": "Feature", "properties": { "amenity": "school", "name": "Government Boys High School" }, "geometry": { "type": "Polygon", "coordinates": [ [ [ 73.658313600000014, 30.5269683 ], [ 73.6596688, 30.526993799999985 ], [ 73.65967310000002, 30.525915 ], [ 73.6583054, 30.5258857 ], [ 73.658313600000014, 30.5269683 ] ] ] } },
{ "type": "Feature", "properties": { "amenity": "university", "name": "University of Okara" }, "geometry": { "type": "Polygon", "coordinates": [ [ [ 73.5596609, 30.8652344 ], [ 73.5603017, 30.864314 ], [ 73.5600676, 30.8642135 ], [ 73.5604927, 30.8636264 ], [ 73.5612014, 30.8639491 ], [ 73.5612935, 30.8637716 ], [ 73.5613098, 30.8637215 ], [ 73.5614733, 30.8636233 ], [ 73.5617675, 30.8631763 ], [ 73.5619963, 30.8632846 ], [ 73.5729995, 30.8686243 ], [ 73.5713552, 30.8709965 ], [ 73.5596609, 30.8652344 ] ] ] } },
{ "type": "Feature", "properties": { "amenity": "school", "name": "Main Ground DPS Okara Boys Wing" }, "geometry": { "type": "Polygon", "coordinates": [ [ [ 73.4228479, 30.8029057 ], [ 73.4239344, 30.8029269 ], [ 73.4239308, 30.8036626 ], [ 73.4228018, 30.8036337 ], [ 73.4228479, 30.8029057 ] ] ] } },
{ "type": "Feature", "properties": { "amenity": "school", "name": "New Campus Cricket Ground" }, "geometry": { "type": "Polygon", "coordinates": [ [ [ 73.4548748, 30.8178714 ], [ 73.4548809, 30.8168205 ], [ 73.4537629, 30.816817 ], [ 73.4536572, 30.817854 ], [ 73.4548748, 30.8178714 ] ] ] } },
{ "type": "Feature", "properties": { "amenity": "school", "name": "New Islamia High School Football Ground" }, "geometry": { "type": "Polygon", "coordinates": [ [ [ 73.4548851, 30.8167981 ], [ 73.4548668, 30.8155342 ], [ 73.4540467, 30.8155212 ], [ 73.4540659, 30.8167911 ], [ 73.4548851, 30.8167981 ] ] ] } }
]
}
